format  = 'OEF1.1'       ! file format
rectype = 'ML'           ! record type (1L/ML)
refsys  = ECLM J2000     ! default reference system
END_OF_HEADER
1996TC1
! Equinoctial elements: a, e*sin(LP), e*cos(LP), tan(i/2)*sin(LN), tan(i/2)*cos(LN), mean long.
 EQU   1.86666736773261E+00 -0.716651694048329 -0.077575963266005  0.010689108170768  0.126937556052459  20.4560901420907
 MJD     52470.00000000 TDT
 MAG  23.932  0.150
! RMS    4.09606E-02   7.79097E-03   1.42637E-04   7.90909E-06   1.43636E-03   2.79200E+01
! EIG   7.46320E-09   9.63083E-08   2.32903E-06   3.81692E-06   1.38135E-04   4.89078E-01
! WEA  -0.08375   0.01593   0.00015   0.00001  -0.00294   0.99636
 COV   1.677771981798865E-03 -3.191130366385297E-04 -2.936916665674595E-06
 COV  -1.081169484374994E-07  5.883192396452012E-05 -1.143619912809572E+00
 COV   6.069925457252717E-05  5.661993676826648E-07  2.010680213772333E-08
 COV  -1.119057123511821E-05  2.175178148331515E-01  2.034527428932792E-08
 COV  -7.222720349621981E-10 -1.044089532618310E-07  2.003407350379113E-03
 COV   6.255363687022121E-11 -3.703313850414344E-09  7.360471249704102E-05
 COV   2.063118818459028E-06 -4.010175323426507E-02  7.795259266565948E+02
 NOR   1.743950816350741E+16 -2.233885770136654E+15 -1.502388853710913E+15
 NOR   3.020707580723704E+11 -4.581885460772584E+13  2.620984179777977E+13
 NOR   2.942368012653790E+14  1.898241595116937E+14  2.751561087889812E+13
 NOR   7.167800579140834E+11 -3.359826123059554E+12  1.302828349901143E+14
 NOR  -8.868407206999801E+12  5.608098410104664E+12 -2.257124937546443E+12
 NOR   9.578774652626442E+13 -1.788500595813968E+13 -8.141082540093220E+09
 NOR   3.530427945345708E+12 -6.725062975501114E+10  3.939156306383953E+10
